IRIDIUM 144             
1 43249U 18030A   25089.78189329  .00000229  00000+0  74612-4 0  9991
2 43249  86.3925 115.8006 0002105  91.7060 268.4377 14.34216631366585
IRIDIUM 149             
1 43250U 18030B   25089.78823708  .00000231  00000+0  75324-4 0  9993
2 43250  86.3925 115.7701 0002128  94.4727 265.6712 14.34216697366600
IRIDIUM 157             
1 43251U 18030C   25089.80726554  .00000233  00000+0  76057-4 0  9994
2 43251  86.3927 115.8055 0002546  93.6868 266.4619 14.34217423366587
IRIDIUM 140             
1 43252U 18030D   25089.82629176  .00000238  00000+0  77947-4 0  9993
2 43252  86.3927 115.8114 0002105  90.7817 269.3620 14.34217341366647
IRIDIUM 145             
1 43253U 18030E   25089.60429866  .00000229  00000+0  74761-4 0  9995
2 43253  86.3926 115.8771 0001893  96.5885 263.5526 14.34217876366541
IRIDIUM 146             
1 43254U 18030F   25089.79457546  .00000132  00000+0  40078-4 0  9999
2 43254  86.3926 115.8114 0001885  96.4204 263.7207 14.34217143366587
IRIDIUM 148             
1 43255U 18030G   25089.62332595  .00000220  00000+0  71494-4 0  9992
2 43255  86.3927 115.9192 0002219  97.3659 262.7789 14.34217607366592
IRIDIUM 142             
1 43256U 18030H   25089.80091622  .00000146  00000+0  45140-4 0  9992
2 43256  86.3924 115.7500 0001887 100.5716 259.5693 14.34217073366586
